name,phone,email,address,postalZip,numberrange
Cadman Hickman,(736) 752-3763,fringilla.cursus@icloud.com,1 Southampton Rd.,77004,53020
Maia Matthews,(224) 671-4718,ut.lacus.nulla@yahoo.com,1 Westport Street,77039,94276
Silas Erickson,(925) 419-4556,in@aol.com,10 West Cypress St.,77042,44883
Alec Padilla,(558) 252-9652,dictum.augue.malesuada@hotmail.couk,12 Overlook Drive,77002,21058
Heidi Stanton,(841) 563-1881,cumlaude@aol.edu,137 Country Club Dr.,77090,25660
Sandra Middleton,(553) 926-5987,dictum.phasellus@yahoo.org,14 Ridgewood Drive,77006,80580
Ferris Cole,(432) 208-9427,cursus.et@hotmail.couk,147 Myrtle St.,77047,76583
Emery Case,(261) 663-7238,feugiat@yahoo.ca,15 Lafayette St.,77020,41234
Edward Ray,(336) 343-2352,massa.lobortis.ultrices@hotmail.org,150 Wayne Ave.,77026,49435
Nolan Middleton,1-713-665-6617,at.velit@aol.org,155 Windsor Street,77029,80133
Stephen Soto,1-449-651-8018,natoque@hotmail.com,160 W. Brown Street,77036,48749
Petra Petersen,1-302-563-5636,dictum.ultricies@aol.ca,161 Canterbury Dr.,77088,90810
Dustin Hutchinson,1-675-381-3052,convallis.est@outlook.edu,173 Peachtree Street,77079,92401
Melodie Huffman,1-656-293-1843,orci.ut.sagittis@hotmail.couk,184 Richardson St.,77042,49417
Sebastian Bonner,(826) 780-1820,lectus@icloud.org,198 Hickory Drive,77090,43789
Reuben Peterson,(718) 366-1475,dictum.eu.placerat@outlook.ca,205 Hudson Avenue,77048,96672
Zena Collins,(207) 221-6611,duis@icloud.ca,23 Wood Dr.,77075,88240
Steven Dillon,(512) 247-2762,nunc.laoreet@outlook.net,24 Rock Maple Rd.,77051,45102
Ocean Woodard,1-266-816-8321,orci@yahoo.ca,25 County Ave.,77094,68081
Zachery Farrell,(246) 406-9256,purus.maecenas.libero@protonmail.org,270 Talbot Ave.,77028,21130
Ulysses Atkinson,(854) 644-9632,ipsum.donec.sollicitudin@protonmail.com,274B Bohemia St.,77058,82111
Mara Hooper,(537) 636-9860,scelerisque.neque.sed@outlook.com,290 East Winding Way Street,77055,38605
Chelsea Miles,1-744-974-5728,consequat.enim@outlook.com,290 Park Lane,77008,28733
Jorden Pitts,(936) 824-8486,mattis.ornare@icloud.edu,293 Sage Circle,77039,21786
Colton Herrera,(428) 222-4588,ut.pellentesque@yahoo.com,3 Edgewater Ave.,77055,20173
Stacey Hull,1-663-426-6543,sit.amet@icloud.com,301 S. Pumpkin Hill Street,77056,95939
Shoshana Kaufman,(489) 638-5588,magna@icloud.com,317 Devon Street,77088,82601
Blake Grant,1-487-491-5274,risus@aol.com,33 W. Queen St.,77032,99719
Nyssa Fields,1-632-331-8546,molestie.sed.id@outlook.com,346 Leeton Ridge St.,77064,76770
Chava Franco,(995) 755-3372,rutrum.non@google.org,349 Ashley Road,77026,49224
Logan Spencer,(348) 883-7317,id.erat.etiam@aol.net,36 La Sierra Drive,77022,66945
Kieran Cox,(469) 572-2615,praesent.eu@yahoo.ca,38 Cedar Drive,77032,49267
Graiden Kerr,(775) 241-2438,nibh.dolor@aol.org,38 Sulphur Springs Rd.,77074,58572
Wendy Blackburn,(567) 281-3525,quisque.libero@aol.edu,4 East Green Lake Lane,77010,50434
Phelan Morris,(665) 634-2625,amet@outlook.edu,4 Indian Summer Road,77037,70345
Medge Dickerson,1-541-518-3703,tincidunt@protonmail.edu,401 West Wentworth St.,77008,43585
Cody Daugherty,1-813-816-4516,hymenaeos.mauris@hotmail.org,404 North Cedar Swamp St.,77085,70903
Blossom Kline,1-219-165-6687,cursus.luctus@yahoo.net,405 Hillcrest Street,77019,42144
Jessamine Goff,1-488-898-1672,diam.lorem.auctor@icloud.com,42 Bald Hill Street,77076,70871
Rose Hayden,(386) 556-3626,nunc@hotmail.net,421 Buttonwood Drive,77045,56842
Dale Hancock,1-846-573-1116,dolor@icloud.couk,43 Arrowhead St.,77045,39888
Priscilla Young,(753) 755-6852,iaculis.quis.pede@icloud.edu,44 Roberts Street,77051,31099
Quail Wong,1-755-221-8376,consectetuer.rhoncus@hotmail.com,444 Howard Street,77004,43373
Louis Stevenson,1-438-233-5777,facilisi@hotmail.couk,468 Manor Ave.,77078,45277
Eve Silva,(762) 805-6752,porta.elit@protonmail.couk,49 Indian Spring Ave.,77009,81424
Mari Alston,1-896-616-9478,arcu@icloud.couk,5 Glenridge Ave.,77044,92016
Danielle Holman,1-727-605-7618,a.dui@google.org,5 Redwood St.,77041,67241
Florence Schroeder,(888) 813-9564,suspendisse.non@yahoo.net,50 Corona Street,77078,20911
Tanner Wade,1-561-672-4153,vitae.mauris@protonmail.com,511 Durham St.,77020,65670
Madaline Sweet,(161) 113-4559,aenean.euismod@yahoo.couk,511 East Carpenter Street,77077,79677
Merritt Lara,(965) 633-5901,pharetra.felis@aol.edu,511 Middle River Road,77083,74250
MacKenzie Leon,1-724-682-2744,nulla.dignissim@icloud.net,517 East Delaware Ave.,77066,48430
Eugenia Payne,(614) 660-2157,nibh.phasellus@yahoo.edu,526 Bridle Court,77088,72188
Aline Clayton,1-443-158-6571,adipiscing.ligula@google.net,527 High Noon Street,77029,47476
Erin Sargent,(622) 879-1851,pellentesque@outlook.org,54 Columbia Lane,77041,60515
Mohammad Rogers,(569) 236-2258,mauris.non@hotmail.edu,54 West Greenrose Dr.,77080,65479
Reece Mercer,1-264-963-1677,nunc.sed@google.ca,547 Clay Road,77070,23607
Trevor Nash,1-918-121-4423,quisque.tincidunt@aol.ca,55 Somerset Rd.,77055,83991
Victor Petersen,1-532-822-8241,non.leo@hotmail.net,56 Marlborough Rd.,77053,79955
Nero Fisher,1-297-677-7375,diam.dictum@google.edu,571 Van Dyke Court,77030,73457
Tasha Olsen,(872) 485-6264,tristique.senectus.et@google.net,576 Clay Court,77012,26774
Abbot Dickson,(168) 283-0531,dui.semper@google.couk,58 Birch Hill Dr.,77063,91178
Darryl Jacobson,(793) 586-2373,interdum@protonmail.edu,6 Cleveland Ave.,77011,70369
Dennis Bowers,(352) 302-1951,consequat.purus@outlook.org,6 Olive Rd.,77094,21317
Brody Hawkins,(479) 387-6447,dolor@protonmail.net,60 Berkshire Street,77033,67321
Reece Frye,1-821-317-5215,vitae.posuere@yahoo.com,60 Vernon St.,77096,59556
Len Newman,(926) 366-2774,quis.accumsan@aol.net,617 Adams Rd.,77088,34838
Octavia Pacheco,1-511-604-7376,placerat.augue@hotmail.edu,66 W. Beaver Ridge St.,77012,90762
Paul Adkins,(612) 346-5792,et.netus@protonmail.com,68 W. Fordham St.,77046,72171
Stephanie Weiss,(491) 928-1116,convallis.ligula.donec@yahoo.edu,680 York Lane,77032,65164
Clare Harmon,(782) 586-3402,sed.dictum@icloud.couk,696 Mayfair Ave.,77061,90110
Jerry Lowe,(164) 519-0875,magna@outlook.ca,697 Swanson Road,77033,63736
Colorado Mullen,1-200-626-6463,lorem@icloud.ca,7 Essex St.,77049,43406
Xenos Payne,1-777-775-4823,phasellus@icloud.couk,7 Marconi Lane,77065,23329
Carissa Carr,1-835-785-6072,quis.turpis.vitae@yahoo.ca,7 N. Greenrose St.,77006,86768
Rosalyn Beard,1-726-127-1963,lorem.vehicula@hotmail.org,70 Ann Avenue,77075,61308
Mara Summers,(844) 561-2796,eget.metus.in@google.org,7025 W. Williams Drive,77000,96762
Medge Rowe,1-763-909-6136,rutrum.urna@icloud.net,7029 St Paul Avenue,77040,22817
Guinevere Marsh,1-620-371-6251,at.risus@google.edu,707 Sussex Street,77009,58769
Griffith Wynn,(237) 368-6442,curae.donec.tincidunt@yahoo.org,7104 North Brandywine St.,77048,25784
Maite Fitzgerald,1-579-336-6345,in.cursus@protonmail.org,712 Sierra St.,77062,72401
Kieran Lester,(963) 510-8271,nullam.enim.sed@protonmail.ca,7174 County St.,77029,61101
Kathleen Riggs,1-546-355-7755,mi.enim.condimentum@protonmail.org,7232 Hilltop Court,77065,70362
Sade Booker,1-623-471-8374,praesent.eu@hotmail.ca,7280 Fawn Ave.,77096,44148
Kibo Whitehead,1-277-609-2342,lorem.eu.metus@hotmail.net,7294 Big Rock Cove Ave.,77099,48043
Reese Tillman,(728) 417-7652,penatibus.et@icloud.org,737 West Blackburn St.,77040,42774
Jenette Tran,1-651-382-5819,et.euismod@hotmail.couk,742 Annadale St.,77039,84717
Chelsea Mcmahon,(327) 611-3629,fringilla.porttitor.vulputate@protonmail.com,746 Cactus St.,77074,81272
Aristotle Evans,1-456-670-7319,turpis.non@google.com,749 North Green Hill St.,77045,64266
Candice Richard,1-318-213-7337,justo.faucibus@protonmail.edu,7491 N. Prospect Ave.,77079,74221
Arden Booker,(942) 679-4522,arcu.vel.quam@aol.couk,7494 Brandywine Lane,77076,84555
Haviva Goodman,(736) 554-6891,mauris@google.couk,7495 Hickory Ave.,77000,22310
Porter Dickerson,1-721-671-0425,aenean.sed@hotmail.com,75 Dunbar St.,77030,53337
Cailin Forbes,1-223-735-6937,massa.integer.vitae@icloud.org,75 Manchester Dr.,77057,85237
Hilda Bates,(219) 821-4183,ut@yahoo.couk,75 SE. Brewery St.,77019,57599
Henry Odom,(259) 711-8885,amet@yahoo.ca,7592 Manor Lane,77005,41012
Joel Potter,(454) 532-1687,pellentesque.eget.dictum@protonmail.couk,76 Surrey Street,77075,64993
Stacy Sanchez,(711) 827-9634,ac@icloud.ca,7603 Shadow Brook St.,77073,76217
Basil Fernandez,1-984-327-3323,vel.vulputate@protonmail.net,7670 Green Lake Drive,77050,42544
Alden Neal,1-521-233-8575,metus.in@outlook.org,7719 East Oakland Court,77061,55797
Kaseem Taylor,(253) 652-5835,a.aliquet@hotmail.ca,7764 Cardinal St.,77087,28129
Iris Roach,(717) 922-5653,a.malesuada@hotmail.ca,7778 Peachtree Ave.,77023,20899
Fleur Navarro,(540) 979-8436,ornare.sagittis@icloud.couk,7854 Briarwood Rd.,77075,94874
Griffin Rodriquez,(802) 321-9043,ante.ipsum.primis@icloud.net,794C Augusta Dr.,77048,44949
Trevor Ortega,1-544-211-8656,felis.adipiscing@yahoo.net,797 East Ave.,77022,49123
Macey Baird,1-484-211-7477,fusce@yahoo.ca,7984 Miles Street,77077,54595
Plato Buck,1-958-828-1534,non.cursus@aol.edu,8 Circle Road,77098,99509
Jeremy Wiggins,1-221-711-7764,sagittis@outlook.net,8 East Bedford Lane,77025,89668
Grace Gonzales,(565) 958-2760,porta.elit@google.edu,8 Riverside Street,77020,80817
Vincent Vega,(663) 401-0076,faucibus.morbi.vehicula@outlook.org,80 North Marshall Street,77093,73921
Hannah Hicks,1-242-446-8887,consectetuer@yahoo.ca,803 Queen Rd.,77011,66888
Murphy Bailey,(780) 675-8741,pede.et@protonmail.org,8032 Silver Spear Court,77072,65899
Phillip Goff,(663) 247-9861,non.feugiat.nec@icloud.edu,804 Central Lane,77044,72764
Darrel Bradley,1-437-321-9667,nullam.vitae@icloud.couk,805 West Clark St.,77019,30288
Todd Mcdowell,1-463-923-1955,magna.lorem@hotmail.org,8071 Whitemarsh Lane,77090,67491
Barbara Evans,1-434-734-6689,libero@hotmail.couk,8133 Coffee St.,77074,26305
Keith Slater,1-626-335-4575,in.sodales@aol.ca,8181 Wentworth Avenue,77088,57212
Gloria Travis,1-321-483-2622,donec.dignissim@aol.net,8204 Hudson Ave.,77041,70795
Claudia Estrada,(234) 546-2761,sit@google.couk,826 Maiden Street,77001,70946
Chaim Sawyer,1-328-118-4643,lacus.mauris@google.com,8448 Glen Creek Ave.,77077,74770
Ivana Fernandez,(643) 655-4744,dui.nec@google.ca,8490 Newport St.,77073,22467
Chandler Lynch,1-651-587-8175,magna.et@aol.ca,8498 E. Valley View Avenue,77022,46205
Armando Sharp,(286) 955-6825,auctor.ullamcorper@protonmail.net,8574 Mill Lane,77004,75358
Rana Woods,1-246-132-8058,ut.nisi@protonmail.edu,86 Cherry Hill Street,77004,83298
Joy Ross,(508) 782-5625,eu.dolor.egestas@icloud.edu,8724 Taylor St.,77046,66967
Kameko Soto,1-755-228-8443,eu@yahoo.couk,874 Glen Ridge St.,77083,44577
Fritz Blackburn,1-174-886-5664,nisi.magna@hotmail.net,8745 Manchester St.,77004,54997
Heather Brennan,1-419-754-2865,sed@aol.net,887 Indian Spring Street,77056,94567
Alma Gordon,(582) 739-2932,orci@hotmail.couk,889 St Margarets St.,77056,75064
Lisandra Castillo,(315) 761-3167,iaculis@hotmail.com,8893 North Vale St.,77051,72647
Brianna Day,(426) 123-0284,adipiscing@aol.couk,8942 Wild Horse Ave.,77057,87545
Aquila Harrington,1-726-139-1283,mauris.vestibulum@aol.net,8990 University Lane,77082,59367
Ronan Mcgowan,(860) 349-7684,ultrices.a.auctor@google.net,9 Littleton Drive,77083,33335
Malik Hester,(224) 453-4632,mollis@protonmail.org,9 Myers St.,77053,84582
Jakeem Jones,(260) 725-6808,vel.arcu@outlook.couk,9074 Brickyard St.,77078,76435
Lance Wilkinson,1-872-621-6184,aliquam.ornare@yahoo.ca,9155 Rocky River St.,77069,49956
Doris Greer,(616) 581-7854,odio.etiam.ligula@outlook.net,93 South Rose Drive,77072,27385
Laura Koch,(877) 844-1753,nec.tempus@outlook.net,9370 Glen Creek St.,77093,75151
Zena Chapman,1-781-500-0668,orci.sem@hotmail.edu,9395 Alton St.,77048,56073
Rajah Haynes,1-977-194-4178,proin@protonmail.ca,9493 Court Dr.,77048,35681
Jaquelyn Ward,(515) 444-7628,ornare@outlook.edu,95 County Ave.,77026,73026
Illiana Carlson,(205) 513-2585,fusce.aliquet@hotmail.ca,9544 Bridle Ave.,77099,94816
Georgia Boone,(445) 403-8544,quam@icloud.net,9591 Buttonwood Street,77058,24289
Neil Velasquez,(574) 395-2486,felis.eget.varius@icloud.com,967 Grandrose Street,77004,70940
Darrel Davis,(544) 324-3372,nullam.enim@hotmail.com,9748 Inverness Dr.,77059,64019
Avram Foley,(222) 778-4162,nec.leo.morbi@aol.edu,9750 Van Dyke Drive,77058,91318
Britanney Goff,(736) 486-2357,justo.faucibus.lectus@icloud.couk,98 53rd St.,77035,26381
Reagan Travis,1-536-537-0164,sapien.imperdiet.ornare@outlook.edu,9871 Peachtree St.,77040,94323
Jade Schultz,(581) 761-2502,luctus.aliquet@outlook.org,9953 NE. Summer Dr.,77094,55737
Brody Rojas,1-753-483-8890,sed.turpis@icloud.couk,9971 San Pablo St.,77092,65458
